{
  "type": "FeatureCollection",
  "features": [
    {
      "type": "Feature",
      "properties": {
        "norad_id": 34350,
        "name": "IRIDIUM 33 DEB",
        "group": "iridium-33-debris",
        "lat": -32.9081223373121,
        "lon": -173.8018914615869,
        "alt_km": 741.6082483098253,
        "timestamp": "2025-12-10T09:57:45.083099+00:00",
        "meta_object_name": "IRIDIUM 33 DEB",
        "meta_object_id": "1997-051ES",
        "meta_epoch": "2025-12-10T02:36:29.822400",
        "meta_mean_motion": 14.45377158,
        "meta_eccentricity": 0.0022586,
        "meta_inclination": 86.3276,
        "meta_ra_of_asc_node": 3.949,
        "meta_arg_of_pericenter": 143.3775,
        "meta_mean_anomaly": 275.8261,
        "meta_ephemeris_type": 0,
        "meta_classification_type": "U",
        "meta_norad_cat_id": 34350,
        "meta_element_set_no": 999,
        "meta_rev_at_epoch": 88255,
        "meta_bstar": 0.00045578,
        "meta_mean_motion_dot": 1.627e-05,
        "meta_mean_motion_ddot": 0,
        "tle_line1": "1 34350U 97051ES  25344.10867850  .00001627  00000+0  45578-3 0  9997",
        "tle_line2": "2 34350  86.3276   3.9490 0022586 143.3775 275.8261 14.45377158882551"
      },
      "geometry": {
        "type": "Point",
        "coordinates": [
          -173.8018914615869,
          -32.9081223373121
        ]
      }
    },
    {
      "type": "Feature",
      "properties": {
        "norad_id": 34366,
        "name": "IRIDIUM 33 DEB",
        "group": "iridium-33-debris",
        "lat": 71.5475825753202,
        "lon": -140.64651788369824,
        "alt_km": 693.394823934279,
        "timestamp": "2025-12-10T09:57:45.083109+00:00",
        "meta_object_name": "IRIDIUM 33 DEB",
        "meta_object_id": "1997-051FJ",
        "meta_epoch": "2025-12-10T02:57:49.783104",
        "meta_mean_motion": 14.5402034,
        "meta_eccentricity": 0.00223,
        "meta_inclination": 86.369,
        "meta_ra_of_asc_node": 50.4509,
        "meta_arg_of_pericenter": 147.8902,
        "meta_mean_anomaly": 234.883,
        "meta_ephemeris_type": 0,
        "meta_classification_type": "U",
        "meta_norad_cat_id": 34366,
        "meta_element_set_no": 999,
        "meta_rev_at_epoch": 88144,
        "meta_bstar": 0.0015809,
        "meta_mean_motion_dot": 6.708e-05,
        "meta_mean_motion_ddot": 0,
        "tle_line1": "1 34366U 97051FJ  25344.12349286  .00006708  00000+0  15809-2 0  9992",
        "tle_line2": "2 34366  86.3690  50.4509 0022300 147.8902 234.8830 14.54020340881443"
      },
      "geometry": {
        "type": "Point",
        "coordinates": [
          -140.64651788369824,
          71.5475825753202
        ]
      }
    },
    {
      "type": "Feature",
      "properties": {
        "norad_id": 34375,
        "name": "IRIDIUM 33 DEB",
        "group": "iridium-33-debris",
        "lat": -35.57686417700471,
        "lon": -178.92285876681728,
        "alt_km": 911.6328673008238,
        "timestamp": "2025-12-10T09:57:45.083120+00:00",
        "meta_object_name": "IRIDIUM 33 DEB",
        "meta_object_id": "1997-051FT",
        "meta_epoch": "2025-12-10T00:40:51.061728",
        "meta_mean_motion": 14.17984283,
        "meta_eccentricity": 0.010311,
        "meta_inclination": 86.4325,
        "meta_ra_of_asc_node": 183.7907,
        "meta_arg_of_pericenter": 135.2462,
        "meta_mean_anomaly": 16.4536,
        "meta_ephemeris_type": 0,
        "meta_classification_type": "U",
        "meta_norad_cat_id": 34375,
        "meta_element_set_no": 999,
        "meta_rev_at_epoch": 86673,
        "meta_bstar": 0.00056995,
        "meta_mean_motion_dot": 1.248e-05,
        "meta_mean_motion_ddot": 0,
        "tle_line1": "1 34375U 97051FT  25344.02836877  .00001248  00000+0  56995-3 0  9994",
        "tle_line2": "2 34375  86.4325 183.7907 0103110 135.2462  16.4536 14.17984283866738"
      },
      "geometry": {
        "type": "Point",
        "coordinates": [
          -178.92285876681728,
          -35.57686417700471
        ]
      }
    },
    {
      "type": "Feature",
      "properties": {
        "norad_id": 34376,
        "name": "IRIDIUM 33 DEB",
        "group": "iridium-33-debris",
        "lat": -35.164888321674574,
        "lon": 4.970832903624947,
        "alt_km": 707.9417741749712,
        "timestamp": "2025-12-10T09:57:45.083130+00:00",
        "meta_object_name": "IRIDIUM 33 DEB",
        "meta_object_id": "1997-051FU",
        "meta_epoch": "2025-12-10T01:54:49.641408",
        "meta_mean_motion": 14.62505409,
        "meta_eccentricity": 0.0026885,
        "meta_inclination": 86.2988,
        "meta_ra_of_asc_node": 7.7353,
        "meta_arg_of_pericenter": 175.5963,
        "meta_mean_anomaly": 184.549,
        "meta_ephemeris_type": 0,
        "meta_classification_type": "U",
        "meta_norad_cat_id": 34376,
        "meta_element_set_no": 999,
        "meta_rev_at_epoch": 87968,
        "meta_bstar": 0.0020749,
        "meta_mean_motion_dot": 0.00010599,
        "meta_mean_motion_ddot": 0,
        "tle_line1": "1 34376U 97051FU  25344.07974122  .00010599  00000+0  20749-2 0  9992",
        "tle_line2": "2 34376  86.2988   7.7353 0026885 175.5963 184.5490 14.62505409879681"
      },
      "geometry": {
        "type": "Point",
        "coordinates": [
          4.970832903624947,
          -35.164888321674574
        ]
      }
    },
    {
      "type": "Feature",
      "properties": {
        "norad_id": 34486,
        "name": "IRIDIUM 33 DEB",
        "group": "iridium-33-debris",
        "lat": -83.15374816033177,
        "lon": -135.21242623817207,
        "alt_km": 595.4771785076746,
        "timestamp": "2025-12-10T09:57:45.083140+00:00",
        "meta_object_name": "IRIDIUM 33 DEB",
        "meta_object_id": "1997-051GB",
        "meta_epoch": "2025-12-10T02:36:03.422016",
        "meta_mean_motion": 14.95601936,
        "meta_eccentricity": 0.0013453,
        "meta_inclination": 86.3935,
        "meta_ra_of_asc_node": 13.2388,
        "meta_arg_of_pericenter": 121.1387,
        "meta_mean_anomaly": 292.5305,
        "meta_ephemeris_type": 0,
        "meta_classification_type": "U",
        "meta_norad_cat_id": 34486,
        "meta_element_set_no": 999,
        "meta_rev_at_epoch": 88947,
        "meta_bstar": 0.0030256,
        "meta_mean_motion_dot": 0.00033786,
        "meta_mean_motion_ddot": 0,
        "tle_line1": "1 34486U 97051GB  25344.10837294  .00033786  00000+0  30256-2 0  9993",
        "tle_line2": "2 34486  86.3935  13.2388 0013453 121.1387 292.5305 14.95601936889471"
      },
      "geometry": {
        "type": "Point",
        "coordinates": [
          -135.21242623817207,
          -83.15374816033177
        ]
      }
    },
    {
      "type": "Feature",
      "properties": {
        "norad_id": 34487,
        "name": "IRIDIUM 33 DEB",
        "group": "iridium-33-debris",
        "lat": -2.2080692487740508,
        "lon": 13.236953825880194,
        "alt_km": 768.394352789478,
        "timestamp": "2025-12-10T09:57:45.083151+00:00",
        "meta_object_name": "IRIDIUM 33 DEB",
        "meta_object_id": "1997-051GC",
        "meta_epoch": "2025-12-10T01:47:16.386144",
        "meta_mean_motion": 14.4321077,
        "meta_eccentricity": 0.0032563,
        "meta_inclination": 86.3436,
        "meta_ra_of_asc_node": 13.5248,
        "meta_arg_of_pericenter": 136.7627,
        "meta_mean_anomaly": 252.8644,
        "meta_ephemeris_type": 0,
        "meta_classification_type": "U",
        "meta_norad_cat_id": 34487,
        "meta_element_set_no": 999,
        "meta_rev_at_epoch": 88210,
        "meta_bstar": 0.00027422,
        "meta_mean_motion_dot": 9.48e-06,
        "meta_mean_motion_ddot": 0,
        "tle_line1": "1 34487U 97051GC  25344.07449521  .00000948  00000+0  27422-3 0  9998",
        "tle_line2": "2 34487  86.3436  13.5248 0032563 136.7627 252.8644 14.43210770882101"
      },
      "geometry": {
        "type": "Point",
        "coordinates": [
          13.236953825880194,
          -2.2080692487740508
        ]
      }
    },
    {
      "type": "Feature",
      "properties": {
        "norad_id": 34488,
        "name": "IRIDIUM 33 DEB",
        "group": "iridium-33-debris",
        "lat": -30.710924128309593,
        "lon": -55.224605220016954,
        "alt_km": 485.50655132589145,
        "timestamp": "2025-12-10T09:57:45.083161+00:00",
        "meta_object_name": "IRIDIUM 33 DEB",
        "meta_object_id": "1997-051GD",
        "meta_epoch": "2025-12-09T15:14:24.291168",
        "meta_mean_motion": 15.28228201,
        "meta_eccentricity": 0.0014113,
        "meta_inclination": 86.3246,
        "meta_ra_of_asc_node": 307.3494,
        "meta_arg_of_pericenter": 56.5071,
        "meta_mean_anomaly": 303.7522,
        "meta_ephemeris_type": 0,
        "meta_classification_type": "U",
        "meta_norad_cat_id": 34488,
        "meta_element_set_no": 999,
        "meta_rev_at_epoch": 89192,
        "meta_bstar": 0.0059279,
        "meta_mean_motion_dot": 0.00166796,
        "meta_mean_motion_ddot": 0,
        "tle_line1": "1 34488U 97051GD  25343.63500337  .00166796  00000+0  59279-2 0  9991",
        "tle_line2": "2 34488  86.3246 307.3494 0014113  56.5071 303.7522 15.28228201891924"
      },
      "geometry": {
        "type": "Point",
        "coordinates": [
          -55.224605220016954,
          -30.710924128309593
        ]
      }
    }
  ]
}